KUIPER-00203            
1 67773U 26030K   26063.83336806 -.01243579  00000+0 -53485-1 0  9993
2 67773  51.8816 242.9805 0012117  49.4214 186.0828 15.24952797  2902
KUIPER-00205            
1 67774U 26030L   26063.74359248  .00038942  00000+0  10936-2 0  9997
2 67774  51.8812 242.9207 0002827   6.3042 353.7979 15.36158693  4338
KUIPER-00208            
1 67775U 26030M   26063.78081860 -.00014164  00000+0 -43177-3 0  9990
2 67775  51.8823 243.1651 0013762  44.5755 315.6334 15.32539941  4339
KUIPER-00209            
1 67776U 26030N   26063.78538881 -.00041353  00000+0 -13520-2 0  9999
2 67776  51.8813 243.1923 0012577  51.8736 308.3380 15.31011124  4331
KUIPER-00213            
1 67777U 26030P   26063.78155952  .00034661  00000+0  10900-2 0  9995
2 67777  51.8795 243.1616 0014984  50.5360 309.6948 15.32539947  4336
KUIPER-00214            
1 67778U 26030Q   26063.73735189  .00028836  00000+0  80304-3 0  9990
2 67778  51.8839 242.8856 0000817 207.5643 152.5300 15.36570505  4332
KUIPER-00215            
1 67779U 26030R   26063.76705659  .00044658  00000+0  13287-2 0  9998
2 67779  51.8840 243.0777 0009989  47.0687 313.1135 15.34241139  4331
KUIPER-00218            
1 67780U 26030S   26063.75778922  .00038673  00000+0  11281-2 0  9994
2 67780  51.8834 243.0161 0006594  37.7900 322.3547 15.34955550  4334
KUIPER-00220            
1 67781U 26030T   26063.76371729  .00042549  00000+0  12556-2 0  9993
2 67781  51.8808 243.0482 0008347  42.9948 317.1689 15.34535049  4336
KUIPER-00222            
1 67782U 26030U   26063.78512999  .00066227  00000+0  20700-2 0  9991
2 67782  51.8795 243.1836 0017177  47.2129 313.0297 15.32405143  4335
KUIPER-00223            
1 67783U 26030V   26063.77027678  .00027522  00000+0  83012-3 0  9997
2 67783  51.8821 243.0949 0012207  46.6825 313.5176 15.34022971  4332
KUIPER-00225            
1 67784U 26030W   26063.74914489  .00029000  00000+0  83095-3 0  9994
2 67784  51.8810 242.9549 0004075  26.2514 333.8678 15.35672120  4338
KUIPER-00226            
1 67785U 26030X   26063.79588970  .00044051  00000+0  14305-2 0  9992
2 67785  51.8804 243.2539 0019601  59.2619 301.0293 15.31321727  4338
KUIPER-00259            
1 67786U 26030Y   26063.75978225  .00037453  00000+0  10962-2 0  9998
2 67786  51.8809 243.0225 0008286  36.0798 324.0746 15.34853547  4333
KUIPER-00260            
1 67787U 26030Z   26063.80677476  .00039930  00000+0  11179-2 0  9992
2 67787  51.8797 242.5929 0001012  47.8828 312.2244 15.36244313  4259
KUIPER-00262            
1 67788U 26030AA  26063.73833897  .00039396  00000+0  10922-2 0  9997
2 67788  51.8808 242.8868 0000376 111.3871 248.7156 15.36555457  4333
KUIPER-00266            
1 67789U 26030AB  26063.73509211  .00019442  00000+0  64658-3 0  9994
2 67789  51.8805 243.5921 0022799  58.7130 301.6082 15.30936728  4328
